{
  "type": "FeatureCollection",
  "features": [
    {
      "type": "Feature",
      "properties": {
        "norad_id": 56564,
        "name": "BEIDOU-3 G4 (C62)",
        "group": "beidou",
        "lat": -0.16460155202763824,
        "lon": 134.01503103982952,
        "alt_km": 35777.02291048415,
        "timestamp": "2025-12-10T16:57:11.902075+00:00",
        "meta_object_name": "BEIDOU-3 G4 (C62)",
        "meta_object_id": "2023-066A",
        "meta_epoch": "2025-12-10T13:40:51.885408",
        "meta_mean_motion": 1.00271376,
        "meta_eccentricity": 0.0002962,
        "meta_inclination": 0.8193,
        "meta_ra_of_asc_node": 301.885,
        "meta_arg_of_pericenter": 234.3814,
        "meta_mean_anomaly": 268.5598,
        "meta_ephemeris_type": 0,
        "meta_classification_type": "U",
        "meta_norad_cat_id": 56564,
        "meta_element_set_no": 999,
        "meta_rev_at_epoch": 950,
        "meta_bstar": 0,
        "meta_mean_motion_dot": -1.07e-06,
        "meta_mean_motion_ddot": 0,
        "tle_line1": "1 56564U 23066A   25344.57004497 -.00000107  00000+0  00000+0 0  9994",
        "tle_line2": "2 56564   0.8193 301.8850 0002962 234.3814 268.5598  1.00271376  9502"
      },
      "geometry": {
        "type": "Point",
        "coordinates": [
          134.01503103982952,
          -0.16460155202763824
        ]
      }
    },
    {
      "type": "Feature",
      "properties": {
        "norad_id": 58654,
        "name": "BEIDOU-3 M28 (C50)",
        "group": "beidou",
        "lat": -54.57993475608122,
        "lon": -5.629701275295018,
        "alt_km": 21527.636657355502,
        "timestamp": "2025-12-10T16:57:11.902086+00:00",
        "meta_object_name": "BEIDOU-3 M28 (C50)",
        "meta_object_id": "2023-207A",
        "meta_epoch": "2025-12-10T06:57:54.812736",
        "meta_mean_motion": 1.86229669,
        "meta_eccentricity": 0.0002336,
        "meta_inclination": 55.5824,
        "meta_ra_of_asc_node": 68.6843,
        "meta_arg_of_pericenter": 269.0776,
        "meta_mean_anomaly": 90.9179,
        "meta_ephemeris_type": 0,
        "meta_classification_type": "U",
        "meta_norad_cat_id": 58654,
        "meta_element_set_no": 999,
        "meta_rev_at_epoch": 1332,
        "meta_bstar": 0,
        "meta_mean_motion_dot": -5.6e-07,
        "meta_mean_motion_ddot": 0,
        "tle_line1": "1 58654U 23207A   25344.29021774 -.00000056  00000+0  00000+0 0  9992",
        "tle_line2": "2 58654  55.5824  68.6843 0002336 269.0776  90.9179  1.86229669 13328"
      },
      "geometry": {
        "type": "Point",
        "coordinates": [
          -5.629701275295018,
          -54.57993475608122
        ]
      }
    },
    {
      "type": "Feature",
      "properties": {
        "norad_id": 58655,
        "name": "BEIDOU-3 M26 (C48)",
        "group": "beidou",
        "lat": 42.30891665309525,
        "lon": 107.2121737195108,
        "alt_km": 21532.64770661473,
        "timestamp": "2025-12-10T16:57:11.902097+00:00",
        "meta_object_name": "BEIDOU-3 M26 (C48)",
        "meta_object_id": "2023-207B",
        "meta_epoch": "2025-12-09T13:13:20.106624",
        "meta_mean_motion": 1.86231165,
        "meta_eccentricity": 0.00037,
        "meta_inclination": 55.5839,
        "meta_ra_of_asc_node": 68.6957,
        "meta_arg_of_pericenter": 254.5617,
        "meta_mean_anomaly": 105.42,
        "meta_ephemeris_type": 0,
        "meta_classification_type": "U",
        "meta_norad_cat_id": 58655,
        "meta_element_set_no": 999,
        "meta_rev_at_epoch": 1329,
        "meta_bstar": 0,
        "meta_mean_motion_dot": -5.1e-07,
        "meta_mean_motion_ddot": 0,
        "tle_line1": "1 58655U 23207B   25343.55092716 -.00000051  00000+0  00000+0 0  9990",
        "tle_line2": "2 58655  55.5839  68.6957 0003700 254.5617 105.4200  1.86231165 13297"
      },
      "geometry": {
        "type": "Point",
        "coordinates": [
          107.2121737195108,
          42.30891665309525
        ]
      }
    },
    {
      "type": "Feature",
      "properties": {
        "norad_id": 61186,
        "name": "BEIDOU-3 M25 (C47)",
        "group": "beidou",
        "lat": 6.86274050549173,
        "lon": 123.87350083838949,
        "alt_km": 21536.150483988702,
        "timestamp": "2025-12-10T16:57:11.902108+00:00",
        "meta_object_name": "BEIDOU-3 M25 (C47)",
        "meta_object_id": "2024-168B",
        "meta_epoch": "2025-12-09T12:38:32.089056",
        "meta_mean_motion": 1.86229941,
        "meta_eccentricity": 0.0005432,
        "meta_inclination": 54.6447,
        "meta_ra_of_asc_node": 308.8306,
        "meta_arg_of_pericenter": 296.174,
        "meta_mean_anomaly": 164.5169,
        "meta_ephemeris_type": 0,
        "meta_classification_type": "U",
        "meta_norad_cat_id": 61186,
        "meta_element_set_no": 999,
        "meta_rev_at_epoch": 825,
        "meta_bstar": 0,
        "meta_mean_motion_dot": -7.8e-07,
        "meta_mean_motion_ddot": 0,
        "tle_line1": "1 61186U 24168B   25343.52676029 -.00000078  00000+0  00000+0 0  9991",
        "tle_line2": "2 61186  54.6447 308.8306 0005432 296.1740 164.5169  1.86229941  8254"
      },
      "geometry": {
        "type": "Point",
        "coordinates": [
          123.87350083838949,
          6.86274050549173
        ]
      }
    },
    {
      "type": "Feature",
      "properties": {
        "norad_id": 61187,
        "name": "BEIDOU-3 M27 (C49)",
        "group": "beidou",
        "lat": -40.952855859628684,
        "lon": -89.2573627634187,
        "alt_km": 21527.193903829073,
        "timestamp": "2025-12-10T16:57:11.902120+00:00",
        "meta_object_name": "BEIDOU-3 M27 (C49)",
        "meta_object_id": "2024-168C",
        "meta_epoch": "2025-12-10T08:23:50.553888",
        "meta_mean_motion": 1.86230151,
        "meta_eccentricity": 0.0002351,
        "meta_inclination": 54.6394,
        "meta_ra_of_asc_node": 308.7857,
        "meta_arg_of_pericenter": 335.0567,
        "meta_mean_anomaly": 92.4403,
        "meta_ephemeris_type": 0,
        "meta_classification_type": "U",
        "meta_norad_cat_id": 61187,
        "meta_element_set_no": 999,
        "meta_rev_at_epoch": 574,
        "meta_bstar": 0,
        "meta_mean_motion_dot": -8.2e-07,
        "meta_mean_motion_ddot": 0,
        "tle_line1": "1 61187U 24168C   25344.34989067 -.00000082  00000+0  00000+0 0  9997",
        "tle_line2": "2 61187  54.6394 308.7857 0002351 335.0567  92.4403  1.86230151  5749"
      },
      "geometry": {
        "type": "Point",
        "coordinates": [
          -89.2573627634187,
          -40.952855859628684
        ]
      }
    }
  ]
}